STARLINK-34551          
1 64682U 25139U   26054.07405234  .00035200  00000+0  11942-2 0  9996
2 64682  53.1618 184.4686 0000964  82.5873 277.5238 15.30221604 38190
STARLINK-34550          
1 64683U 25139V   26054.12144095  .00014217  00000+0  49088-3 0  9996
2 64683  53.1600 194.7021 0001339  88.9494 271.1660 15.30221751 38052
STARLINK-34485          
1 64684U 25139W   26053.94238985  .00017006  00000+0  58514-3 0  9991
2 64684  53.1577 195.7168 0000937  71.6472 288.4630 15.30191079 38021
STARLINK-34253          
1 64685U 25139X   26053.67797016  .00037119  00000+0  12587-2 0  9993
2 64685  53.1580 196.9112 0001128  84.4138 275.6992 15.30210503 37989
STARLINK-34565          
1 64686U 25139Y   26053.67479939  .00028917  00000+0  98399-3 0  9997
2 64686  53.1578 196.8907 0000998  71.7988 288.3121 15.30222304 37981
STARLINK-34554          
1 64687U 25139Z   26054.10879914  .00026413  00000+0  90056-3 0  9995
2 64687  53.1603 194.6222 0001221  89.4685 270.6456 15.30206023 38051
STARLINK-34262          
1 64688U 25139AA  26054.11829998  .00006359  00000+0  22692-3 0  9992
2 64688  53.1601 194.6802 0001268  66.6673 293.4461 15.30156753 38119
STARLINK-34538          
1 64689U 25139AB  26053.66846805  .00032404  00000+0  11005-2 0  9993
2 64689  53.1591 196.8511 0001488  55.6847 304.4294 15.30226096 37983
STARLINK-34250          
1 64690U 25139AC  26053.67163711  .00037889  00000+0  12845-2 0  9999
2 64690  53.1590 196.8724 0001272  85.1403 274.9743 15.30208406 37982
LYRA-4                  
1 64691U 25140A   26053.97383634  .00001715  00000+0  27665-3 0  9999
2 64691  95.9868 204.2223 0011600 221.8881 138.1445 14.72165568 35252
GOSAT-GW (IBUKI GW)     
1 64694U 25141A   26054.12270469 -.00003899  00000+0 -67938-3 0  9996
2 64694  98.0494 353.3486 0001415  80.7188 279.4177 14.67553323 35116
STARLINK-34497          
1 64696U 25142A   26054.08140000  .00008287  00000+0  70130-3 0  9993
2 64696  70.0037 351.2541 0002059 266.0878  94.0046 14.98341903 37458
STARLINK-34584          
1 64697U 25142B   26054.06453661  .00004358  00000+0  37270-3 0  9995
2 64697  70.0034 351.1891 0002256 268.6152  91.4748 14.98342423 37295
STARLINK-34535          
1 64698U 25142C   26054.11044874  .00005842  00000+0  49681-3 0  9992
2 64698  70.0026 351.3227 0002630 270.8160  89.2698 14.98344681 37288
STARLINK-34600          
1 64699U 25142D   26052.23673434  .00249652  00000+0  21175-1 0  9999
2 64699  70.0036 356.0181 0002419 280.0202  80.0683 14.96483089 37014
STARLINK-34560          
1 64700U 25142E   26054.09754607  .00005425  00000+0  49141-3 0  9993
2 64700  70.0025 351.2779 0002796 272.2454  87.8383 14.95925108 37255
STARLINK-34576          
1 64701U 25142F   26054.16668981  .00028616  00000+0  23971-2 0  9990
2 64701  70.0017 350.9279 0002811 273.7795 253.7656 14.98317974  5756
STARLINK-34322          
1 64702U 25142G   26054.16668981  .00026182  00000+0  21945-2 0  9996
2 64702  70.0027 350.9481 0002857 273.3650 231.6732 14.98319567  5805
STARLINK-34470          
1 64703U 25142H   26054.06052618  .00006957  00000+0  59006-3 0  9998
2 64703  70.0034 351.1509 0002388 277.1076  82.9811 14.98345166 37276
STARLINK-34405          
1 64704U 25142J   26054.07676329  .00775072  00000+0  58192-1 0  9995
2 64704  70.0023 351.2357 0010417 234.3472 125.6718 14.99927859 37305
STARLINK-34406          
1 64705U 25142K   26054.10210421  .00005058  00000+0  43121-3 0  9995
2 64705  70.0021 351.3213 0002777 270.4554  89.6287 14.98343427 37412
STARLINK-34559          
1 64706U 25142L   26054.07708152  .00022787  00000+0  19109-2 0  9991
2 64706  70.0021 351.2346 0003254 239.9772 120.1064 14.98337535 37307
STARLINK-34316          
1 64707U 25142M   26054.08123489  .00005230  00000+0  44572-3 0  9994
2 64707  70.0024 351.2496 0002462 269.5610  90.5267 14.98337009 37465
STARLINK-34563          
1 64708U 25142N   26054.05620872  .00005592  00000+0  47591-3 0  9995
2 64708  70.0027 351.5591 0002779 265.3544  94.7298 14.98345733 37260
STARLINK-34499          
1 64709U 25142P   26054.07289991  .00011885  00000+0  10017-2 0  9995
2 64709  70.0025 351.1922 0002853 272.6002  87.4830 14.98348503 37276
STARLINK-34447          
1 64710U 25142Q   26054.07302465 -.00000915  00000+0 -73587-4 0  9996
2 64710  70.0021 351.1857 0002640 271.2126  88.8729 14.95892061 37460
STARLINK-34312          
1 64711U 25142R   26054.08556770  .00003178  00000+0  27408-3 0  9990
2 64711  70.0020 351.2591 0002477 270.9197  89.1678 14.98325596 37462
STARLINK-34515          
1 64712U 25142S   26054.16668981  .00030522  00000+0  25557-2 0  9993
2 64712  70.0030 350.9042 0002952 274.0460 276.0161 14.98315180  5701
STARLINK-34583          
1 64713U 25142T   26054.11462563  .00007215  00000+0  61170-3 0  9992
2 64713  70.0021 351.3279 0002850 270.4426  89.6406 14.98341458 37272
STARLINK-34574          
1 64714U 25142U   26054.09809657  .00005263  00000+0  44845-3 0  9990
2 64714  70.0017 351.3029 0002353 268.4852  91.6038 14.98341192 37302
STARLINK-34533          
1 64715U 25142V   26054.08540036  .00000878  00000+0  81328-4 0  9998
2 64715  70.0023 351.2631 0002775 269.7620  90.3221 14.98333487 37277
STARLINK-34548          
1 64716U 25142W   26054.06871051  .00007390  00000+0  62627-3 0  9997
2 64716  70.0037 351.2047 0002073 269.3680  90.7241 14.98346386 37275
STARLINK-34568          
1 64717U 25142X   26054.09375757  .00003630  00000+0  31177-3 0  9992
2 64717  70.0022 351.2931 0002629 269.9774  90.1084 14.98338912 37308
STARLINK-34546          
1 64718U 25142Y   26054.06037562  .00010094  00000+0  85239-3 0  9999
2 64718  70.0026 351.1731 0002676 266.4413  93.6440 14.98338689 37466
STARLINK-34577          
1 64719U 25142Z   26054.07135604  .00003806  00000+0  34732-3 0  9992
2 64719  70.0023 351.1830 0002413 271.3860  88.7022 14.95919086 37301
STARLINK-34572          
1 64720U 25142AA  26054.08958171  .00003881  00000+0  33281-3 0  9998
2 64720  70.0018 351.2766 0002330 269.6359  90.4533 14.98340125 37466
STARLINK-34558          
1 64721U 25142AB  26054.08974709  .00003700  00000+0  31761-3 0  9995
2 64721  70.0014 351.2726 0002385 267.9201  92.1685 14.98343031 37271
MTG-S1                  
1 64723U 25143A   26054.09938536 -.00000029  00000+0  00000+0 0  9997
2 64723   0.6690 324.5931 0002763 339.7097 241.0968  1.00267885  2276
STARLINK-34393          
1 64724U 25144A   26053.91567808  .00037000  00000+0  12542-2 0  9994
2 64724  53.1585 249.4004 0000658 102.3668 257.7407 15.30223449 37465
STARLINK-34562          
1 64725U 25144B   26053.69557724  .00025449  00000+0  86784-3 0  9990
2 64725  53.1572 250.8653 0001665 126.6324 233.4830 15.30221293 37393
STARLINK-34557          
1 64726U 25144C   26053.73978573  .00037323  00000+0  12655-2 0  9994
2 64726  53.1590 250.4379 0001376  85.4392 274.6766 15.30211277 37421
STARLINK-34242          
1 64727U 25144D   26053.96422519  .00016897  00000+0  58124-3 0  9999
2 64727  53.1564 249.7019 0001174  91.2166 268.8969 15.30204364 37457
STARLINK-34239          
1 64728U 25144E   26053.92834588  .00031651  00000+0  10748-2 0  9993
2 64728  53.1607 249.4787 0001011  64.6622 295.4483 15.30241058 37454
STARLINK-34588          
1 64729U 25144F   26053.68924932  .00035775  00000+0  12138-2 0  9996
2 64729  53.1575 250.8299 0000954  72.8200 287.2905 15.30210049 37411
STARLINK-34606          
1 64730U 25144G   26053.92940010  .00027480  00000+0  93613-3 0  9992
2 64730  53.1605 249.4876 0000964  89.2906 270.8205 15.30212966 37453
STARLINK-34552          
1 64731U 25144H   26053.92095544  .00035257  00000+0  11963-2 0  9994
2 64731  53.1597 249.4292 0000705 101.0574 259.0506 15.30215874 37457
STARLINK-34596          
1 64732U 25144J   26053.81460111  .00035412  00000+0  12017-2 0  9993
2 64732  53.1581 250.1920 0001001  80.4250 279.6864 15.30208607 37438
STARLINK-34556          
1 64733U 25144K   26053.90987350  .00039720  00000+0  13454-2 0  9995
2 64733  53.1585 247.2304 0000433  75.9977 284.1072 15.30216618 37487
STARLINK-34591          
1 64734U 25144L   26053.92517229  .00024420  00000+0  83369-3 0  9996
2 64734  53.1600 249.4555 0000554 133.6414 226.4633 15.30208384 37438
STARLINK-34587          
1 64735U 25144M   26053.82409893  .00028289  00000+0  96336-3 0  9998
2 64735  53.1569 250.2543 0001176  91.2633 268.8502 15.30208621 37386
STARLINK-34130          
1 64736U 25144N   26053.93784100  .00026548  00000+0  90498-3 0  9997
2 64736  53.1592 249.5339 0001123  88.3217 271.7912 15.30210866 37454
STARLINK-34619          
1 64737U 25144P   26053.83781685  .00031075  00000+0  10567-2 0  9991
2 64737  53.1559 250.3290 0001168  97.6443 262.4691 15.30205682 37436
STARLINK-34597          
1 64738U 25144Q   26053.91252700  .00024946  00000+0  85186-3 0  9991
2 64738  53.1569 249.3788 0001052  94.6348 265.4773 15.30188099 37437
STARLINK-34471          
1 64739U 25144R   26053.82092996  .00033673  00000+0  11435-2 0  9993
2 64739  53.1579 250.2277 0000874  82.5921 277.5179 15.30210289 37371
STARLINK-34208          
1 64740U 25144S   26054.00002314  .00061686  00000+0  20801-2 0  9993
2 64740  53.1569 246.7895 0001189  82.0660  66.5613 15.30160613  5776
STARLINK-34205          
1 64741U 25144T   26053.94206313  .00042747  00000+0  14471-2 0  9994
2 64741  53.1590 249.5625 0001109  90.9371 269.1757 15.30200629 37454
STARLINK-34607          
1 64742U 25144U   26053.69663215  .00026965  00000+0  91888-3 0  9997
2 64742  53.1574 250.8682 0001486 107.4010 252.7154 15.30212037 37395
STARLINK-34236          
1 64743U 25144V   26053.94099874  .00030729  00000+0  10456-2 0  9994
2 64743  53.1594 249.5536 0001412  86.9023 273.2140 15.30191477 37459
STARLINK-34185          
1 64744U 25144W   26053.91778779  .00033703  00000+0  11442-2 0  9991
2 64744  53.1586 249.4085 0000467 142.4319 217.6714 15.30220953 37455
